<?xml version="1.0" encoding="UTF-8"?>
<ndm xmlns:xsi="http://www.w3.org/2001/XMLSchema-instance" xsi:noNamespaceSchemaLocation="https://sanaregistry.org/r/ndmxml_unqualified/ndmxml-2.0.0-master-2.0.xsd">
<omm id="CCSDS_OMM_VERS" version="2.0">
<header><CREATION_DATE/><ORIGINATOR/></header><body><segment><metadata><OBJECT_NAME>QIANFAN-41</OBJECT_NAME><OBJECT_ID>2024-232F</OBJECT_ID><CENTER_NAME>EARTH</CENTER_NAME><REF_FRAME>TEME</REF_FRAME><TIME_SYSTEM>UTC</TIME_SYSTEM><MEAN_ELEMENT_THEORY>SGP4</MEAN_ELEMENT_THEORY></metadata><data><meanElements><EPOCH>2025-07-29T13:21:50.334912</EPOCH><MEAN_MOTION>13.50959219</MEAN_MOTION><ECCENTRICITY>.0012555</ECCENTRICITY><INCLINATION>88.9931</INCLINATION><RA_OF_ASC_NODE>54.9674</RA_OF_ASC_NODE><ARG_OF_PERICENTER>219.0964</ARG_OF_PERICENTER><MEAN_ANOMALY>140.9281</MEAN_ANOMALY></meanElements><tleParameters><EPHEMERIS_TYPE>0</EPHEMERIS_TYPE><CLASSIFICATION_TYPE>U</CLASSIFICATION_TYPE><NORAD_CAT_ID>62242</NORAD_CAT_ID><ELEMENT_SET_NO>999</ELEMENT_SET_NO><REV_AT_EPOCH>8086</REV_AT_EPOCH><BSTAR>.2658E-4</BSTAR><MEAN_MOTION_DOT>.29E-6</MEAN_MOTION_DOT><MEAN_MOTION_DDOT>0</MEAN_MOTION_DDOT></tleParameters></data></segment></body></omm>
<omm id="CCSDS_OMM_VERS" version="2.0">
<header><CREATION_DATE/><ORIGINATOR/></header><body><segment><metadata><OBJECT_NAME>QIANFAN-42</OBJECT_NAME><OBJECT_ID>2024-232G</OBJECT_ID><CENTER_NAME>EARTH</CENTER_NAME><REF_FRAME>TEME</REF_FRAME><TIME_SYSTEM>UTC</TIME_SYSTEM><MEAN_ELEMENT_THEORY>SGP4</MEAN_ELEMENT_THEORY></metadata><data><meanElements><EPOCH>2025-07-29T13:22:40.802880</EPOCH><MEAN_MOTION>14.24332720</MEAN_MOTION><ECCENTRICITY>.0015493</ECCENTRICITY><INCLINATION>88.9928</INCLINATION><RA_OF_ASC_NODE>52.9382</RA_OF_ASC_NODE><ARG_OF_PERICENTER>161.4138</ARG_OF_PERICENTER><MEAN_ANOMALY>198.7623</MEAN_ANOMALY></meanElements><tleParameters><EPHEMERIS_TYPE>0</EPHEMERIS_TYPE><CLASSIFICATION_TYPE>U</CLASSIFICATION_TYPE><NORAD_CAT_ID>62243</NORAD_CAT_ID><ELEMENT_SET_NO>999</ELEMENT_SET_NO><REV_AT_EPOCH>8198</REV_AT_EPOCH><BSTAR>.54943E-4</BSTAR><MEAN_MOTION_DOT>.142E-5</MEAN_MOTION_DOT><MEAN_MOTION_DDOT>0</MEAN_MOTION_DDOT></tleParameters></data></segment></body></omm>
<omm id="CCSDS_OMM_VERS" version="2.0">
<header><CREATION_DATE/><ORIGINATOR/></header><body><segment><metadata><OBJECT_NAME>QIANFAN-43</OBJECT_NAME><OBJECT_ID>2024-232H</OBJECT_ID><CENTER_NAME>EARTH</CENTER_NAME><REF_FRAME>TEME</REF_FRAME><TIME_SYSTEM>UTC</TIME_SYSTEM><MEAN_ELEMENT_THEORY>SGP4</MEAN_ELEMENT_THEORY></metadata><data><meanElements><EPOCH>2025-07-29T13:15:48.718080</EPOCH><MEAN_MOTION>13.50951999</MEAN_MOTION><ECCENTRICITY>.0013941</ECCENTRICITY><INCLINATION>88.9935</INCLINATION><RA_OF_ASC_NODE>55.0271</RA_OF_ASC_NODE><ARG_OF_PERICENTER>225.5321</ARG_OF_PERICENTER><MEAN_ANOMALY>134.4691</MEAN_ANOMALY></meanElements><tleParameters><EPHEMERIS_TYPE>0</EPHEMERIS_TYPE><CLASSIFICATION_TYPE>U</CLASSIFICATION_TYPE><NORAD_CAT_ID>62244</NORAD_CAT_ID><ELEMENT_SET_NO>999</ELEMENT_SET_NO><REV_AT_EPOCH>4947</REV_AT_EPOCH><BSTAR>.1471E-4</BSTAR><MEAN_MOTION_DOT>.21E-6</MEAN_MOTION_DOT><MEAN_MOTION_DDOT>0</MEAN_MOTION_DDOT></tleParameters></data></segment></body></omm>
<omm id="CCSDS_OMM_VERS" version="2.0">
<header><CREATION_DATE/><ORIGINATOR/></header><body><segment><metadata><OBJECT_NAME>QIANFAN-44</OBJECT_NAME><OBJECT_ID>2024-232J</OBJECT_ID><CENTER_NAME>EARTH</CENTER_NAME><REF_FRAME>TEME</REF_FRAME><TIME_SYSTEM>UTC</TIME_SYSTEM><MEAN_ELEMENT_THEORY>SGP4</MEAN_ELEMENT_THEORY></metadata><data><meanElements><EPOCH>2025-07-28T13:51:38.858112</EPOCH><MEAN_MOTION>13.50947582</MEAN_MOTION><ECCENTRICITY>.0012156</ECCENTRICITY><INCLINATION>88.9934</INCLINATION><RA_OF_ASC_NODE>54.9392</RA_OF_ASC_NODE><ARG_OF_PERICENTER>224.7241</ARG_OF_PERICENTER><MEAN_ANOMALY>135.2930</MEAN_ANOMALY></meanElements><tleParameters><EPHEMERIS_TYPE>0</EPHEMERIS_TYPE><CLASSIFICATION_TYPE>U</CLASSIFICATION_TYPE><NORAD_CAT_ID>62245</NORAD_CAT_ID><ELEMENT_SET_NO>999</ELEMENT_SET_NO><REV_AT_EPOCH>8081</REV_AT_EPOCH><BSTAR>.18335E-4</BSTAR><MEAN_MOTION_DOT>.24E-6</MEAN_MOTION_DOT><MEAN_MOTION_DDOT>0</MEAN_MOTION_DDOT></tleParameters></data></segment></body></omm>
<omm id="CCSDS_OMM_VERS" version="2.0">
<header><CREATION_DATE/><ORIGINATOR/></header><body><segment><metadata><OBJECT_NAME>QIANFAN-45</OBJECT_NAME><OBJECT_ID>2024-232K</OBJECT_ID><CENTER_NAME>EARTH</CENTER_NAME><REF_FRAME>TEME</REF_FRAME><TIME_SYSTEM>UTC</TIME_SYSTEM><MEAN_ELEMENT_THEORY>SGP4</MEAN_ELEMENT_THEORY></metadata><data><meanElements><EPOCH>2025-07-28T14:50:52.872864</EPOCH><MEAN_MOTION>13.50957810</MEAN_MOTION><ECCENTRICITY>.0012818</ECCENTRICITY><INCLINATION>88.9937</INCLINATION><RA_OF_ASC_NODE>55.0768</RA_OF_ASC_NODE><ARG_OF_PERICENTER>224.5138</ARG_OF_PERICENTER><MEAN_ANOMALY>135.4984</MEAN_ANOMALY></meanElements><tleParameters><EPHEMERIS_TYPE>0</EPHEMERIS_TYPE><CLASSIFICATION_TYPE>U</CLASSIFICATION_TYPE><NORAD_CAT_ID>62246</NORAD_CAT_ID><ELEMENT_SET_NO>999</ELEMENT_SET_NO><REV_AT_EPOCH>8074</REV_AT_EPOCH><BSTAR>.94001E-5</BSTAR><MEAN_MOTION_DOT>.18E-6</MEAN_MOTION_DOT><MEAN_MOTION_DDOT>0</MEAN_MOTION_DDOT></tleParameters></data></segment></body></omm>
<omm id="CCSDS_OMM_VERS" version="2.0">
<header><CREATION_DATE/><ORIGINATOR/></header><body><segment><metadata><OBJECT_NAME>QIANFAN-46</OBJECT_NAME><OBJECT_ID>2024-232L</OBJECT_ID><CENTER_NAME>EARTH</CENTER_NAME><REF_FRAME>TEME</REF_FRAME><TIME_SYSTEM>UTC</TIME_SYSTEM><MEAN_ELEMENT_THEORY>SGP4</MEAN_ELEMENT_THEORY></metadata><data><meanElements><EPOCH>2025-07-28T13:39:47.515680</EPOCH><MEAN_MOTION>13.50959939</MEAN_MOTION><ECCENTRICITY>.001277</ECCENTRICITY><INCLINATION>88.9933</INCLINATION><RA_OF_ASC_NODE>55.1565</RA_OF_ASC_NODE><ARG_OF_PERICENTER>230.8193</ARG_OF_PERICENTER><MEAN_ANOMALY>129.1825</MEAN_ANOMALY></meanElements><tleParameters><EPHEMERIS_TYPE>0</EPHEMERIS_TYPE><CLASSIFICATION_TYPE>U</CLASSIFICATION_TYPE><NORAD_CAT_ID>62247</NORAD_CAT_ID><ELEMENT_SET_NO>999</ELEMENT_SET_NO><REV_AT_EPOCH>8069</REV_AT_EPOCH><BSTAR>.28582E-4</BSTAR><MEAN_MOTION_DOT>.3E-6</MEAN_MOTION_DOT><MEAN_MOTION_DDOT>0</MEAN_MOTION_DDOT></tleParameters></data></segment></body></omm>
<omm id="CCSDS_OMM_VERS" version="2.0">
<header><CREATION_DATE/><ORIGINATOR/></header><body><segment><metadata><OBJECT_NAME>QIANFAN-47</OBJECT_NAME><OBJECT_ID>2024-232M</OBJECT_ID><CENTER_NAME>EARTH</CENTER_NAME><REF_FRAME>TEME</REF_FRAME><TIME_SYSTEM>UTC</TIME_SYSTEM><MEAN_ELEMENT_THEORY>SGP4</MEAN_ELEMENT_THEORY></metadata><data><meanElements><EPOCH>2025-07-28T13:45:36.495648</EPOCH><MEAN_MOTION>13.50959566</MEAN_MOTION><ECCENTRICITY>.0013207</ECCENTRICITY><INCLINATION>88.9929</INCLINATION><RA_OF_ASC_NODE>55.0945</RA_OF_ASC_NODE><ARG_OF_PERICENTER>229.9897</ARG_OF_PERICENTER><MEAN_ANOMALY>130.0095</MEAN_ANOMALY></meanElements><tleParameters><EPHEMERIS_TYPE>0</EPHEMERIS_TYPE><CLASSIFICATION_TYPE>U</CLASSIFICATION_TYPE><NORAD_CAT_ID>62248</NORAD_CAT_ID><ELEMENT_SET_NO>999</ELEMENT_SET_NO><REV_AT_EPOCH>8072</REV_AT_EPOCH><BSTAR>.29268E-4</BSTAR><MEAN_MOTION_DOT>.31E-6</MEAN_MOTION_DOT><MEAN_MOTION_DDOT>0</MEAN_MOTION_DDOT></tleParameters></data></segment></body></omm>
<omm id="CCSDS_OMM_VERS" version="2.0">
<header><CREATION_DATE/><ORIGINATOR/></header><body><segment><metadata><OBJECT_NAME>QIANFAN-48</OBJECT_NAME><OBJECT_ID>2024-232N</OBJECT_ID><CENTER_NAME>EARTH</CENTER_NAME><REF_FRAME>TEME</REF_FRAME><TIME_SYSTEM>UTC</TIME_SYSTEM><MEAN_ELEMENT_THEORY>SGP4</MEAN_ELEMENT_THEORY></metadata><data><meanElements><EPOCH>2025-07-28T14:39:01.311840</EPOCH><MEAN_MOTION>13.50953291</MEAN_MOTION><ECCENTRICITY>.0015419</ECCENTRICITY><INCLINATION>88.9933</INCLINATION><RA_OF_ASC_NODE>55.0871</RA_OF_ASC_NODE><ARG_OF_PERICENTER>233.4769</ARG_OF_PERICENTER><MEAN_ANOMALY>126.4963</MEAN_ANOMALY></meanElements><tleParameters><EPHEMERIS_TYPE>0</EPHEMERIS_TYPE><CLASSIFICATION_TYPE>U</CLASSIFICATION_TYPE><NORAD_CAT_ID>62249</NORAD_CAT_ID><ELEMENT_SET_NO>999</ELEMENT_SET_NO><REV_AT_EPOCH>8073</REV_AT_EPOCH><BSTAR>.46038E-4</BSTAR><MEAN_MOTION_DOT>.42E-6</MEAN_MOTION_DOT><MEAN_MOTION_DDOT>0</MEAN_MOTION_DDOT></tleParameters></data></segment></body></omm>

</ndm>
