QIANFAN-41              
1 62242U 24232F   25210.55683258  .00000029  00000+0  26580-4 0  9996
2 62242  88.9931  54.9674 0012555 219.0964 140.9281 13.50959219 80861
QIANFAN-42              
1 62243U 24232G   25210.55741670  .00000142  00000+0  54943-4 0  9990
2 62243  88.9928  52.9382 0015493 161.4138 198.7623 14.24332720 81988
QIANFAN-43              
1 62244U 24232H   25210.55264720  .00000021  00000+0  14710-4 0  9991
2 62244  88.9935  55.0271 0013941 225.5321 134.4691 13.50951999 49473
QIANFAN-44              
1 62245U 24232J   25209.57753308  .00000024  00000+0  18335-4 0  9997
2 62245  88.9934  54.9392 0012156 224.7241 135.2930 13.50947582 80815
QIANFAN-45              
1 62246U 24232K   25209.61866751  .00000018  00000+0  94001-5 0  9998
2 62246  88.9937  55.0768 0012818 224.5138 135.4984 13.50957810 80744
QIANFAN-46              
1 62247U 24232L   25209.56929995  .00000030  00000+0  28582-4 0  9997
2 62247  88.9933  55.1565 0012770 230.8193 129.1825 13.50959939 80697
QIANFAN-47              
1 62248U 24232M   25209.57333907  .00000031  00000+0  29268-4 0  9994
2 62248  88.9929  55.0945 0013207 229.9897 130.0095 13.50959566 80720
QIANFAN-48              
1 62249U 24232N   25209.61043185  .00000042  00000+0  46038-4 0  9992
2 62249  88.9933  55.0871 0015419 233.4769 126.4963 13.50953291 80732
